KUIPER-00157            
1 65970U 25228Z   25347.91667824  .00061456  00000+0  17225-2 0  9990
2 65970  51.8799  14.9373 0007302  29.9181  94.5626 15.35994099  5378
